MEAN_MOTION;ECCENTRICITY;INCLINATION;RA_OF_ASC_NODE;ARG_OF_PERICENTER;MEAN_ANOMALY;BSTAR;MEAN_MOTION_DOT;MEAN_MOTION_DDOT;TYPE
1.00271871;0.0001848;0.015;124.5095;226.5394;100.3734;0;-2.98E-6;0;Intelsat
1.00271738;0.0001857;0.0158;122.9387;228.7667;196.4626;0;-3.0E-6;0;Intelsat
1.00271381;0.0001881;0.0179;121.4652;232.1899;93.6615;0;-3.02E-6;0;Intelsat
1.00271246;0.000189;0.0189;120.1127;234.3555;200.8965;0;-3.03E-6;0;Intelsat
1.00270943;0.0001904;0.0207;118.6902;237.7782;67.7141;0;-3.05E-6;0;Intelsat
1.00262478;0.0002053;0.0016;117.9195;261.2334;278.2464;0;-3.07E-6;0;Intelsat
1.00262824;0.0002067;0.0139;187.2362;191.3126;64.8468;0;-3.08E-6;0;Intelsat
1.00262745;0.0002055;0.0157;177.3488;200.3965;185.4589;0;-3.09E-6;0;Intelsat
1.0027477;0.0001958;0.015;184.3851;178.7486;297.0499;0;-3.09E-6;0;Intelsat
1.00272483;0.0001959;0.0183;173.9929;191.3743;297.62;0;-3.1E-6;0;Intelsat
1.00272312;0.0001929;0.0103;163.6688;200.385;80.9094;0;-3.1E-6;0;Intelsat
1.00272107;0.0001939;0.0181;168.9044;201.4863;39.0681;0;-3.1E-6;0;Intelsat
1.00271998;0.0001936;0.0192;168.1383;200.9345;66.3037;0;-3.1E-6;0;Intelsat
1.00271707;0.0001922;0.0194;163.2896;207.4986;71.5738;0;-3.09E-6;0;Intelsat
1.00271686;0.0001932;0.0204;161.1752;210.624;142.8796;0;-3.09E-6;0;Intelsat
1.00271494;0.0001911;0.0195;159.7094;213.4882;74.6051;0;-3.08E-6;0;Intelsat
1.00271443;0.0001915;0.019;156.6181;217.7416;153.5877;0;-3.08E-6;0;Intelsat
1.00271287;0.0001905;0.016;152.9786;223.502;41.4144;0;-3.07E-6;0;Intelsat
1.00271202;0.0001905;0.0101;143.3436;234.8004;180.3678;0;-3.07E-6;0;Intelsat
1.00271043;0.0001894;0.012;138.5741;241.4058;79.9986;0;-3.06E-6;0;Intelsat
1.00270913;0.0001888;0.0136;135.0587;246.4883;259.4203;0;-3.06E-6;0;Intelsat
1.00270809;0.0001883;0.015;131.828;250.6947;56.975;0;-3.05E-6;0;Intelsat
1.0027065;0.0001872;0.0165;127.1237;257.265;272.3344;0;-3.05E-6;0;Intelsat
1.00271675;0.0001844;0.0177;125.3376;257.2823;43.6528;0;-3.05E-6;0;Intelsat
1.00271675;0.0001844;0.0177;125.3376;257.2823;43.6528;0;-3.04E-6;0;Intelsat
1.00271432;0.0001822;0.0197;121.8355;262.1892;275.5035;0;-3.04E-6;0;Intelsat
1.0027136;0.000182;0.0209;120.3995;264.0401;44.5931;0;-3.04E-6;0;Intelsat
1.00271362;0.000182;0.0209;120.2424;264.5793;70.1277;0;-3.03E-6;0;Intelsat
1.00271401;0.0001775;0.0227;117.4103;267.5793;284.0219;0;-3.03E-6;0;Intelsat
1.00271418;0.0001783;0.0238;116.1345;268.849;72.7692;0;-3.03E-6;0;Intelsat
1.00271435;0.0001761;0.0265;113.193;271.9495;49.4991;0;-3.02E-6;0;Intelsat
1.00271364;0.0001734;0.0292;110.6873;275.3446;57.9307;0;-3.0E-6;0;Intelsat
1.00271345;0.0001732;0.0294;110.4763;275.5441;77.3414;0;-3.0E-6;0;Intelsat
1.00270575;0.0001437;0.0011;172.9604;211.261;149.0964;0;-3.0E-6;0;Intelsat
1.00275993;0.000164;0.0135;204.2205;172.1308;275.4052;0;-2.99E-6;0;Intelsat
1.00272295;0.0001586;0.0245;191.4761;185.3705;37.5083;0;-2.98E-6;0;Intelsat
1.00272187;0.0001588;0.0246;191.4752;187.1631;87.5543;0;-2.97E-6;0;Intelsat
1.0027171;0.000157;0.0245;190.7825;183.6772;81.9115;0;-2.95E-6;0;Intelsat
1.00271576;0.0001585;0.0243;190.3616;179.9407;174.8005;0;-2.95E-6;0;Intelsat
1.00271097;0.00016;0.0237;189.9006;178.5176;103.4011;0;-2.93E-6;0;Intelsat
1.0027076;0.0001621;0.0232;189.2471;184.0676;279.8938;0;-2.92E-6;0;Intelsat
1.00273692;0.0001607;0.0198;173.405;200.2508;75.0482;0;-2.91E-6;0;Intelsat
1.00273532;0.0001619;0.0197;170.1714;203.1471;164.4872;0;-2.9E-6;0;Intelsat
1.00273346;0.0001641;0.02;172.6218;200.8316;297.4783;0;-2.89E-6;0;Intelsat
1.00273175;0.0001629;0.0204;172.1139;201.9715;100.39;0;-2.88E-6;0;Intelsat
1.00272919;0.0001649;0.0191;168.6308;204.4296;283.0897;0;-2.88E-6;0;Intelsat
1.00272744;0.0001645;0.021;168.6043;205.2949;80.4111;0;-2.87E-6;0;Intelsat
1.0027224;0.0001663;0.011;150.1349;222.7438;58.3462;0;-2.87E-6;0;Intelsat
1.00272162;0.0001664;0.0113;148.7087;224.2051;111.4762;0;-2.86E-6;0;Intelsat
1.00271693;0.0001687;0.0153;135.6815;237.0342;61.3081;0;-2.87E-6;0;Intelsat
1.00271654;0.0001688;0.0155;135.23;237.5382;87.1735;0;-2.87E-6;0;Intelsat
1.00271075;0.000172;0.0204;124.313;248.4383;89.9863;0;-2.88E-6;0;Intelsat
1.00270927;0.0001734;0.0225;120.2093;252.9021;193.2661;0;-2.89E-6;0;Intelsat
1.00270778;0.0001749;0.0234;118.1849;255.4221;296.4291;0;-2.9E-6;0;Intelsat
1.00271397;0.0001761;0.0262;112.9822;258.3798;207.7074;0;-2.92E-6;0;Intelsat
1.00270975;0.0001786;0.0298;105.6576;266.6501;112.1246;0;-2.94E-6;0;Intelsat
1.0027072;0.0001811;0.0319;101.6199;272.361;301.6683;0;-2.96E-6;0;Intelsat
1.00270514;0.0001825;0.0332;99.5061;274.91;87.782;0;-2.97E-6;0;Intelsat
1.00270226;0.0001849;0.0356;94.4777;281.5935;302.3785;0;-3.0E-6;0;Intelsat
1.00270048;0.0001864;0.0367;93.22;283.3628;71.4229;0;-3.0E-6;0;Intelsat
1.00269599;0.0001901;0.0396;89.1935;290.195;71.4092;0;-3.04E-6;0;Intelsat
1.00269572;0.0001904;0.0398;88.562;291.0153;97.4612;0;-3.03E-6;0;Intelsat
1.00269159;0.0001939;0.0424;85.5335;297.4211;98.8724;0;-3.05E-6;0;Intelsat
1.00270874;0.000197;0.0184;201.6166;181.3452;279.9067;0;-3.06E-6;0;Intelsat
1.00270931;0.0001982;0.018;200.8201;184.3668;71.2347;0;-3.06E-6;0;Intelsat
1.00273289;0.0001972;0.0184;172.3342;214.8536;72.0223;0;-3.06E-6;0;Intelsat
1.00272952;0.0001945;0.0161;157.1869;229.0524;49.8653;0;-3.05E-6;0;Intelsat
1.00272625;0.0001934;0.0193;135.6254;252.2917;50.9978;0;-3.04E-6;0;Intelsat
1.0027261;0.0001938;0.0184;133.9422;254.3041;76.5858;0;-3.04E-6;0;Intelsat
1.0027239;0.0001941;0.0264;116.4857;274.746;50.4882;0;-3.03E-6;0;Intelsat
1.00272365;0.0001945;0.0272;114.351;277.4478;94.1116;0;-3.02E-6;0;Intelsat
1.00272145;0.0001946;0.0324;100.7152;294.1411;71.7267;0;-3.02E-6;0;Intelsat
1.0027213;0.0001947;0.0329;99.3116;295.8829;96.5281;0;-3.01E-6;0;Intelsat
1.00271891;0.000194;0.0352;93.2512;304.9363;98.698;0;-3.0E-6;0;Intelsat
1.00271837;0.0001938;0.0355;93.9544;304.8939;169.734;0;-3.01E-6;0;Intelsat
1.0027175;0.0001934;0.0361;91.2043;308.1376;281.2143;0;-3.0E-6;0;Intelsat
1.00271648;0.0001928;0.0367;90.8734;309.7101;77.8884;0;-3.0E-6;0;Intelsat
1.00271488;0.0001919;0.0376;86.2247;315.6247;281.2552;0;-2.99E-6;0;Intelsat
1.00271375;0.0001908;0.0381;84.8801;317.8642;76.1036;0;-2.99E-6;0;Intelsat
1.00271201;0.0001895;0.0389;83.3072;320.4919;282.3663;0;-2.99E-6;0;Intelsat
1.00271201;0.0001895;0.0389;83.3072;320.4919;282.3663;0;-2.98E-6;0;Intelsat
1.00271073;0.0001881;0.0395;82.5332;321.8942;77.2124;0;-2.98E-6;0;Intelsat
1.00270885;0.0001867;0.0403;81.4264;324.0654;283.4702;0;-2.97E-6;0;Intelsat
1.00270745;0.0001852;0.0408;80.6374;325.2337;78.5597;0;-2.97E-6;0;Intelsat
1.00270414;0.0001824;0.0418;79.3406;327.7337;54.2552;0;-2.95E-6;0;Intelsat
1.00270372;0.0001816;0.042;79.3895;327.7684;95.8253;0;-2.95E-6;0;Intelsat
1.00270033;0.0001788;0.0539;82.6142;325.3267;56.1803;0;-2.93E-6;0;Intelsat
1.00271897;0.0001473;0.0116;228.8855;168.6136;299.8498;0;-2.92E-6;0;Intelsat
1.00272008;0.000148;0.0114;228.472;168.6082;69.8559;0;-2.9E-6;0;Intelsat
1.00271821;0.000147;0.011;227.2777;169.5473;188.6801;0;-2.9E-6;0;Intelsat
1.00274703;0.0001438;0.0112;223.7446;173.7021;98.1878;0;-2.88E-6;0;Intelsat
1.00274561;0.0001431;0.0112;222.5588;174.1685;201.022;0;-2.87E-6;0;Intelsat
1.00271155;0.0001416;0.0087;228.3531;168.0394;50.213;0;-2.86E-6;0;Intelsat
1.00274328;0.0001457;0.0095;223.0122;173.5088;104.4755;0;-2.85E-6;0;Intelsat
1.00271176;0.0001418;0.0081;223.4272;170.7359;249.9083;0;-2.84E-6;0;Intelsat
1.00272409;0.0001511;0.0074;218.2481;178.9582;308.5447;0;-2.84E-6;0;Intelsat
1.00272489;0.0001502;0.0085;94.1142;302.9909;52.2874;0;-2.83E-6;0;Intelsat
1.00272633;0.0001519;0.0093;151.1379;247.2448;107.3817;0;-2.83E-6;0;Intelsat
1.00272543;0.0001558;0.0059;194.9137;203.694;180.3719;0;-2.83E-6;0;Intelsat
1.002723;0.0001548;0.0048;180.8497;217.4135;323.3998;0;-2.82E-6;0;Intelsat
1.00272137;0.000154;0.0071;104.1538;293.9853;90.7551;0;-2.81E-6;0;Intelsat
1.00271998;0.0001544;0.014;77.7608;319.9451;197.8512;0;-2.81E-6;0;Intelsat
1.00271871;0.0001538;0.0063;223.2889;174.0154;288.1199;0;-2.81E-6;0;Intelsat
1.00271629;0.0001527;0.0141;79.4896;317.8153;96.3854;0;-2.8E-6;0;Intelsat
1.00271468;0.0001536;0.0279;125.1082;271.9468;214.7188;0;-2.8E-6;0;Intelsat
1.0027134;0.0001532;0.0034;213.6603;183.4603;301.3762;0;-2.8E-6;0;Intelsat
1.00271143;0.0001526;0.0046;227.4327;169.8212;50.0435;0;-2.8E-6;0;Intelsat
1.00268843;0.0001624;0.0063;261.9308;138.1364;294.0783;0;-2.8E-6;0;Intelsat
1.00268544;0.0001615;0.0048;301.5297;98.0115;48.7326;0;-2.81E-6;0;Intelsat
1.00268441;0.0001617;0.0014;325.2384;74.1776;106.8461;0;-2.81E-6;0;Intelsat
1.00268203;0.0001644;0.0145;91.4637;309.5545;198.3576;0;-2.81E-6;0;Intelsat
1.00268109;0.0001625;0.0046;291.5428;109.6115;61.6274;0;-2.83E-6;0;Intelsat
1.00268064;0.0001625;0.005;294.66;106.641;85.8922;0;-2.83E-6;0;Intelsat
1.00270654;0.0001565;0.0194;281.7257;113.1144;301.7695;0;-2.84E-6;0;Intelsat
1.00270312;0.0001612;0.0171;286.4013;108.2336;308.9105;0;-2.88E-6;0;Intelsat
1.00269971;0.0001701;0.0138;285.1196;109.815;76.8282;0;-2.92E-6;0;Intelsat
1.00269934;0.0001699;0.0135;285.6445;110.5771;108.2274;0;-2.92E-6;0;Intelsat
1.0026974;0.0001722;0.0119;286.9647;112.3177;305.6981;0;-2.94E-6;0;Intelsat
1.00269599;0.0001746;0.0112;286.4724;112.4637;75.6206;0;-2.95E-6;0;Intelsat
1.00269568;0.0001753;0.0109;286.6097;112.5235;111.2621;0;-2.95E-6;0;Intelsat
1.00269316;0.0001883;0.0079;99.3275;306.8941;301.5524;0;-2.97E-6;0;Intelsat
1.00269199;0.0001851;0.0071;302.2191;101.7022;62.7593;0;-2.98E-6;0;Intelsat
1.00272428;0.000175;0.0143;283.5461;115.3689;311.665;0;-2.98E-6;0;Intelsat
1.00271989;0.0001761;0.0152;287.1263;111.6269;97.0159;0;-2.99E-6;0;Intelsat
1.00271842;0.0001779;0.0168;286.406;114.7558;312.2252;0;-2.99E-6;0;Intelsat
1.00271694;0.0001808;0.0176;289.7994;112.0341;101.6208;0;-2.99E-6;0;Intelsat
1.00271407;0.0001841;0.0205;292.2668;111.9783;81.5105;0;-2.99E-6;0;Intelsat
1.00273182;0.0001854;0.0123;285.692;119.0261;219.2417;0;-2.98E-6;0;Intelsat
1.00272451;0.0001808;0.0109;288.4387;118.0948;82.0307;0;-2.97E-6;0;Intelsat
1.00272315;0.000181;0.012;290.6929;118.4155;286.7594;0;-2.97E-6;0;Intelsat
